MALLIGYONG-1            
1 58400U 23179A   24025.12832842  .00007612  00000+0  33431-3 0  9994
2 58400  97.4245 274.0608 0017350  55.3016 304.9852 15.22075036  9813
